{
    "type": "FeatureCollection",
    "features": [
        {
            "type": "Feature",
            "properties": {
                "id": "wall-001",
                "buildingId": "tower-01",
                "buildingName": "Tháp chuông bên trái",
                "baseZ": 9,
                "height": 44,
                "material": "Gạch"
            },
            "geometry": {
                "type": "LineString",
                "coordinates": [
                    [
                        106.69921474573036,
                        10.779447264138202
                    ],
                    [
                        106.6992656680461,
                        10.779502571187221
                    ]
                ]
            }
        },
        {
            "type": "Feature",
            "properties": {
                "id": "wall-002",
                "buildingId": "tower-01",
                "buildingName": "Tháp chuông bên trái",
                "baseZ": 9,
                "height": 44,
                "material": "Gạch"
            },
            "geometry": {
                "type": "LineString",
                "coordinates": [
                    [
                        106.69921474573036,
                        10.779447264138202
                    ],
                    [
                        106.69916103232897, 
                        10.779497312696945
                    ]
                ]
            }
        },
        {
            "type": "Feature",
            "properties": {
                "id": "wall-003",
                "buildingId": "tower-01",
                "buildingName": "Tháp chuông bên trái",
                "baseZ": 9,
                "height": 44,
                "material": "Gạch"
            },
            "geometry": {
                "type": "LineString",
                "coordinates": [
                    [
                        106.69916103232897,
                        10.779497312696945
                    ],
                    [
                        106.69921349720597,
                        10.779551356448232
                    ]
                ]
            }
        },
        {
            "type": "Feature",
            "properties": {
                "id": "wall-004",
                "buildingId": "tower-01",
                "buildingName": "Tháp chuông bên trái",
                "baseZ": 9,
                "height": 44,
                "material": "Gạch"
            },
            "geometry": {
                "type": "LineString",
                "coordinates": [
                    [
                        106.69921349720597,
                        10.779551356448232
                    ],
                    [
                        106.6992656680461,
                        10.779502571187221
                    ]
                ]
            }
        },
        {
            "type": "Feature",
            "properties": {
                "id": "wall-005",
                "buildingId": "b001",
                "buildingName": "Chính điện",
                "baseZ": 9,
                "height": 30,
                "material": "Gạch"
            },
            "geometry": {
                "type": "LineString",
                "coordinates": [
                    [
                        106.6992656680461,
                        10.779502571187221
                    ],
                    [
                        106.69931938721504,
                        10.779558056150924 
                    ]
                ]
            }
        },
        {
            "type": "Feature",
            "properties": {
                "id": "wall-006",
                "buildingId": "tower-02",
                "buildingName": "Tháp chuông bên phải",
                "baseZ": 9,
                "height": 44,
                "material": "Gạch"
            },
            "geometry": {
                "type": "LineString",
                "coordinates": [
                    [
                        106.69931938721504,
                        10.779558056150924
                    ],
                    [
                        106.69937034193144,
                        10.779611928282318
                    ]
                ]
            }
        },
        {
            "type": "Feature",
            "properties": {
                "id": "wall-007",
                "buildingId": "tower-02",
                "buildingName": "Tháp chuông bên phải",
                "baseZ": 9,
                "height": 44,
                "material": "Gạch"
            },
            "geometry": {
                "type": "LineString",
                "coordinates": [
                    [
                        106.69937034193144,
                        10.779611928282318
                    ],
                    [
                        106.69931670188687,
                        10.779661976261488 
                    ]
                ]
            }
        },
        {
            "type": "Feature",
            "properties": {
                "id": "wall-008",
                "buildingId": "tower-02",
                "buildingName": "Tháp chuông bên phải",
                "baseZ": 9,
                "height": 44,
                "material": "Gạch"
            },
            "geometry": {
                "type": "LineString",
                "coordinates": [
                    [
                        106.69931670188687,
                        10.779661976261488
                    ],
                    [
                        106.69926576435819,
                        10.779606952871548
                    ]
                ]
            }
        },
        {
            "type": "Feature",
            "properties": {
                "id": "wall-009",
                "buildingId": "tower-02",
                "buildingName": "Tháp chuông bên phải",
                "baseZ": 9,
                "height": 44,
                "material": "Gạch"
            },
            "geometry": {
                "type": "LineString",
                "coordinates": [
                    [
                        106.69926576435819,
                        10.779606952871548
                    ],
                    [
                        106.69931938721504,
                        10.779558056150924
                    ]
                ]
            }
        },
        {
            "type": "Feature",
            "properties": {
                "id": "wall-010",
                "buildingId": "b002",
                "buildingName": "Gian nhà phải",
                "baseZ": 9,
                "height": 9,
                "material": "Gạch"
            },
            "geometry": {
                "type": "LineString",
                "coordinates": [
                    [
                        106.69931670188687,
                        10.779661976261488
                    ],
                    [
                        
                        106.69935401684597,
                        10.779701573075865
                        
                    ]
                ]
            }
        },
        {
            "type": "Feature",
            "properties": {
                "id": "wall-011",
                "buildingId": "b002",
                "buildingName": "Gian nhà phải",
                "baseZ": 9,
                "height": 9,
                "material": "Gạch"
            },
            "geometry": {
                "type": "LineString",
                "coordinates": [
                    [
                        106.69935401684597,
                        10.779701573075865
                    ],
                    [
                        106.69912082845771,
                        10.779917445409009
                    ]
                ]
            }
        },
        {
            "type": "Feature",
            "properties": {
                "id": "wall-012",
                "buildingId": "b002",
                "buildingName": "Gian nhà phải",
                "baseZ": 19,
                "height": 3.5,
                "material": "Gạch"
            },
            "geometry": {
                "type": "LineString",
                "coordinates": [
                    [
                        106.69931670188687,
                        10.779661976261488
                    ],
                    [
                        106.69908242438987,
                        10.779876707579765
                    ]
                ]
            }
        },
        {
            "type": "Feature",
            "properties": {
                "id": "wall-013",
                "buildingId": "b003",
                "buildingName": "Gian nhà trái",
                "baseZ": 9,
                "height": 9,
                "material": "Gạch"
            },
            "geometry": {
                "type": "LineString",
                "coordinates": [
                    [
                        106.69916103232897,
                        10.779497312696945
                    ],
                    [
                        106.69912358716093,
                        10.779457834703612
                    ]
                ]
            }
        },
        {
            "type": "Feature",
            "properties": {
                "id": "wall-014",
                "buildingId": "b003",
                "buildingName": "Gian nhà trái",
                "baseZ": 9,
                "height": 9,
                "material": "Gạch"
            },
            "geometry": {
                "type": "LineString",
                "coordinates": [
                    [
                        106.69912358716093,
                        10.779457834703612
                    ],
                    [
                        106.69889111200396,
                        10.779674447923936
                    ]
                ]
            }
        },
        {
            "type": "Feature",
            "properties": {
                "id": "wall-015",
                "buildingId": "b003",
                "buildingName": "Gian nhà trái",
                "baseZ": 19,
                "height": 3.5,
                "material": "Gạch"
            },
            "geometry": {
                "type": "LineString",
                "coordinates": [
                    [
                        106.69916103232897,
                        10.779497312696945
                    ],
                    [
                        106.6989285571415,
                        10.779713925917266
                    ]
                ]
            }
        }
        

        
    ]
}